NORAD_CAT_ID,OBJECT_NAME,OBJECT_TYPE,EPOCH,MEAN_MOTION,ECCENTRICITY,INCLINATION,RA_OF_ASC_NODE,ARG_OF_PERICENTER,MEAN_ANOMALY,BSTAR,MEAN_MOTION_DOT,MEAN_MOTION_DDOT,TLE_LINE0,TLE_LINE1,TLE_LINE2,SEMIMAJOR_AXIS,PERIOD,APOGEE,PERIGEE,DECAYED
52680.0,STARLINK-3774,PAYLOAD,2023-01-09 03:18:23,15.08848815,0.0002669,53.217,291.5852,20.0167,340.093,0.00081774,0.00012754,0.0,0 STARLINK-3774,1 52680U 22053AA  23009.13776927  .00012754  00000-0  81774-3 0  9998,2 52680  53.2170 291.5852 0002669  20.0167 340.0930 15.08848815 36299,6917.853,95.437,541.565,537.872,0.0
52680.0,STARLINK-3774,PAYLOAD,2023-01-10 04:44:32,15.0885957,0.0002471,53.2165,286.8284,24.441,335.6699,0.00010597,1.399e-05,0.0,0 STARLINK-3774,1 52680U 22053AA  23010.19760280  .00001399  00000-0  10597-3 0  9999,2 52680  53.2165 286.8284 0002471  24.4410 335.6699 15.08859570 36459,6917.821,95.436,541.395,537.976,0.0
52680.0,STARLINK-3774,PAYLOAD,2023-01-10 11:06:05,15.08843075,0.0002675,53.2163,285.6385,25.8881,334.2245,7.513600000000001e-05,9.08e-06,0.0,0 STARLINK-3774,1 52680U 22053AA  23010.46256450  .00000908  00000-0  75136-4 0  9994,2 52680  53.2163 285.6385 0002675  25.8881 334.2245 15.08843075 36498,6917.871,95.437,541.587,537.885,0.0
52680.0,STARLINK-3774,PAYLOAD,2023-01-11 10:56:52,15.08859541,0.0002765,53.2158,281.1784,28.5687,331.5456,0.00035041,5.296e-05,0.0,0 STARLINK-3774,1 52680U 22053AA  23011.45615799  .00005296  00000-0  35041-3 0  9994,2 52680  53.2158 281.1784 0002765  28.5687 331.5456 15.08859541 36646,6917.821,95.436,541.5980000000002,537.773,0.0
52680.0,STARLINK-3774,PAYLOAD,2023-01-11 18:53:47,15.08845431,0.0002604,53.2163,279.6908,26.3362,333.7762,0.00017621,2.518e-05,0.0,0 STARLINK-3774,1 52680U 22053AA  23011.78736070  .00002518  00000-0  17621-3 0  9994,2 52680  53.2163 279.6908 0002604  26.3362 333.7762 15.08845431 36692,6917.864000000001,95.437,541.53,537.927,0.0
52680.0,STARLINK-3774,PAYLOAD,2023-01-12 21:55:21,15.08840182,0.0002688,53.2171,274.6342,28.1118,332.0019,3.915e-05,3.35e-06,0.0,0 STARLINK-3774,1 52680U 22053AA  23012.91344127  .00000335  00000-0  39150-4 0  9995,2 52680  53.2171 274.6342 0002688  28.1118 332.0019 15.08840182 37279,6917.88,95.438,541.604,537.885,0.0
52680.0,STARLINK-3774,PAYLOAD,2023-01-12 23:30:44,15.08841583,0.0002757,53.2171,274.337,30.2119,329.9031,-1.5358e-05,-5.33e-06,0.0,0 STARLINK-3774,1 52680U 22053AA  23012.97967889 -.00000533  00000-0 -15358-4 0  9993,2 52680  53.2171 274.3370 0002757  30.2119 329.9031 15.08841583 36879,6917.876,95.437,541.648,537.8330000000002,0.0
52680.0,STARLINK-3774,PAYLOAD,2023-01-13 10:38:27,15.08828099,0.0002669,53.2163,272.256,29.4082,330.7059,-0.00019224,-3.346e-05,0.0,0 STARLINK-3774,1 52680U 22053AA  23013.44336841 -.00003346  00000-0 -19224-3 0  9994,2 52680  53.2163 272.2560 0002669  29.4082 330.7059 15.08828099 36944,6917.917,95.438,541.628,537.935,0.0
52680.0,STARLINK-3774,PAYLOAD,2023-01-14 16:50:47,15.08830475,0.0002866,53.2176,266.6076,32.6791,327.4378,2.8553000000000003e-05,1.66e-06,0.0,0 STARLINK-3774,1 52680U 22053AA  23014.70193832  .00000166  00000-0  28553-4 0  9996,2 52680  53.2176 266.6076 0002866  32.6791 327.4378 15.08830475 37139,6917.91,95.438,541.757,537.7919999999999,0.0
52680.0,STARLINK-3774,PAYLOAD,2023-01-15 02:23:05,15.08834307,0.0002833999999999,53.216,264.8232,32.2659,327.8506,0.00017809,2.547e-05,0.0,0 STARLINK-3774,1 52680U 22053AA  23015.09937478  .00002547  00000-0  17809-3 0  9997,2 52680  53.2160 264.8232 0002834  32.2659 327.8506 15.08834307 37191,6917.898,95.438,541.7230000000001,537.802,0.0
52680.0,STARLINK-3774,PAYLOAD,2023-01-15 21:27:43,15.08845061,0.0002044999999999,53.2172,261.2526,57.6821,302.4369,0.00027509,4.093e-05,0.0,0 STARLINK-3774,1 52680U 22053AA  23015.89425144  .00004093  00000-0  27509-3 0  9993,2 52680  53.2172 261.2526 0002045  57.6821 302.4369 15.08845061 37721,6917.865,95.437,541.145,538.315,0.0
52680.0,STARLINK-3774,PAYLOAD,2023-01-16 08:35:26,15.08839427,0.0002411999999999,53.2148,259.1705,45.106,315.0128,0.00015163,2.126e-05,0.0,0 STARLINK-3774,1 52680U 22053AA  23016.35794103  .00002126  00000-0  15163-3 0  9997,2 52680  53.2148 259.1705 0002412  45.1060 315.0128 15.08839427 37388,6917.882,95.438,541.4159999999999,538.0790000000001,0.0
52680.0,STARLINK-3774,PAYLOAD,2023-01-16 16:32:22,15.08826399,0.0002065999999999,53.2156,257.6848,52.0488,308.069,-0.0001793,-3.14e-05,0.0,0 STARLINK-3774,1 52680U 22053AA  23016.68914896 -.00003140  00000-0 -17930-3 0  9999,2 52680  53.2156 257.6848 0002066  52.0488 308.0690 15.08826399 37430,6917.922,95.438,541.216,538.3580000000001,0.0
52680.0,STARLINK-3774,PAYLOAD,2023-01-16 22:53:55,15.08829989,0.0002247,53.216,256.4971,53.2296,306.8902,-0.00010529,-1.963e-05,0.0,0 STARLINK-3774,1 52680U 22053AA  23016.95410880 -.00001963  00000-0 -10529-3 0  9991,2 52680  53.2160 256.4971 0002247  53.2296 306.8902 15.08829989 37889,6917.911,95.438,541.33,538.222,0.0
52680.0,STARLINK-3774,PAYLOAD,2023-01-17 02:04:41,15.08834994,0.0001969,53.2166,255.9004,45.5927,314.5226,-5.0519e-05,-1.092e-05,0.0,0 STARLINK-3774,1 52680U 22053AA  23017.08658609 -.00001092  00000-0 -50519-4 0  9996,2 52680  53.2166 255.9004 0001969  45.5927 314.5226 15.08834994 37495,6917.896,95.438,541.123,538.399,0.0
52680.0,STARLINK-3774,PAYLOAD,2023-01-17 08:26:13,15.08829565,0.0001898,53.2164,254.7108,47.7436,312.3717,-1.5257e-05,-5.31e-06,0.0,0 STARLINK-3774,1 52680U 22053AA  23017.35155048 -.00000531  00000-0 -15257-4 0  9992,2 52680  53.2164 254.7108 0001898  47.7436 312.3717 15.08829565 37944,6917.911999999999,95.438,541.09,538.464,0.0
52680.0,STARLINK-3774,PAYLOAD,2023-01-17 16:23:09,15.08829228,0.000188,53.2159,253.225,55.1997,304.9172,2.9052e-05,1.74e-06,0.0,0 STARLINK-3774,1 52680U 22053AA  23017.68275294  .00000174  00000-0  29052-4 0  9993,2 52680  53.2159 253.2250 0001880  55.1997 304.9172 15.08829228 37999,6917.9130000000005,95.438,541.0790000000001,538.4780000000001,0.0
52680.0,STARLINK-3774,PAYLOAD,2023-01-18 08:17:01,15.08836996,0.0001993,53.2161,250.2507,52.1854,307.9318,0.00017657,2.523e-05,0.0,0 STARLINK-3774,1 52680U 22053AA  23018.34515251  .00002523  00000-0  17657-3 0  9994,2 52680  53.2161 250.2507 0001993  52.1854 307.9318 15.08836996 37689,6917.89,95.438,541.133,538.376,0.0
52680.0,STARLINK-3774,PAYLOAD,2023-01-18 21:00:06,15.08845363,0.0001935,53.2163,247.8711,59.3518,300.7665,0.00029325,4.383e-05,0.0,0 STARLINK-3774,1 52680U 22053AA  23018.87506999  .00004383  00000-0  29325-3 0  9992,2 52680  53.2163 247.8711 0001935  59.3518 300.7665 15.08845363 38171,6917.8640000000005,95.437,541.068,538.39,0.0
52680.0,STARLINK-3774,PAYLOAD,2023-01-19 00:10:52,15.08853008,0.0001809,53.2159,247.2771,56.9124,303.2041,0.00042106,6.422e-05,0.0,0 STARLINK-3774,1 52680U 22053AA  23019.00754721  .00006422  00000-0  42106-3 0  9994,2 52680  53.2159 247.2771 0001809  56.9124 303.2041 15.08853008 37789,6917.840999999999,95.437,540.957,538.4540000000001,0.0
52680.0,STARLINK-3774,PAYLOAD,2023-01-19 16:04:44,15.08835505,0.000143,53.2155,244.3049,64.7673,295.3467,3.0495e-05,1.97e-06,0.0,0 STARLINK-3774,1 52680U 22053AA  23019.66995495  .00000197  00000-0  30495-4 0  9993,2 52680  53.2155 244.3049 0001430  64.7673 295.3467 15.08835505 37883,6917.894,95.438,540.748,538.77,0.0
52680.0,STARLINK-3774,PAYLOAD,2023-01-20 07:58:35,15.08842537,0.0001748,53.2158,241.3298,68.2321,291.8857,0.00020974,3.052e-05,0.0,0 STARLINK-3774,1 52680U 22053AA  23020.33235317  .00003052  00000-0  20974-3 0  9992,2 52680  53.2158 241.3298 0001748  68.2321 291.8857 15.08842537 38394,6917.8730000000005,95.437,540.947,538.528,0.0
52680.0,STARLINK-3774,PAYLOAD,2023-01-20 23:52:26,15.08853397,0.0001693,53.2155,238.3565,72.9837,287.134,0.00089658,0.00014015,0.0,0 STARLINK-3774,1 52680U 22053AA  23020.99475341  .00014015  00000-0  89658-3 0  9992,2 52680  53.2155 238.3565 0001693  72.9837 287.1340 15.08853397 38084,6917.839,95.437,540.876,538.533,0.0
52680.0,STARLINK-3774,PAYLOAD,2023-01-21 07:49:22,15.08851101,0.0001648,53.2153,236.87,72.2754,287.8418,0.00048603,7.458e-05,0.0,0 STARLINK-3774,1 52680U 22053AA  23021.32595220  .00007458  00000-0  48603-3 0  9997,2 52680  53.2153 236.8700 0001648  72.2754 287.8418 15.08851101 38137,6917.846,95.437,540.852,538.571,0.0
52680.0,STARLINK-3774,PAYLOAD,2023-01-22 14:01:41,15.08844648,0.0001492,53.2157,231.2193,81.3848,278.7313,0.00021744,3.175e-05,0.0,0 STARLINK-3774,1 52680U 22053AA  23022.58451173  .00003175  00000-0  21744-3 0  9993,2 52680  53.2157 231.2193 0001492  81.3848 278.7313 15.08844648 38320,6917.866,95.437,540.763,538.6990000000001,0.0
52680.0,STARLINK-3774,PAYLOAD,2023-01-23 20:14:01,15.08842014,0.0001402,53.2172,225.571,80.7928,279.3223,0.00013401,1.846e-05,0.0,0 STARLINK-3774,1 52680U 22053AA  23023.84307338  .00001846  00000-0  13401-3 0  9990,2 52680  53.2172 225.5710 0001402  80.7928 279.3223 15.08842014 38514,6917.874,95.437,540.7090000000001,538.769,0.0
52680.0,STARLINK-3774,PAYLOAD,2023-01-25 11:58:39,15.08840141,0.0001485,53.2173,218.137,87.3378,272.7784,9.3489e-05,1.2e-05,0.0,0 STARLINK-3774,1 52680U 22053AA  23025.49907364  .00001200  00000-0  93489-4 0  9997,2 52680  53.2173 218.1370 0001485  87.3378 272.7784 15.08840141 38763,6917.88,95.438,540.7719999999999,538.7180000000001,0.0
52680.0,STARLINK-3774,PAYLOAD,2023-01-25 13:34:03,15.08836485,0.0001527,53.218,217.8399,88.5425,271.5742,-7.7561e-06,-4.11e-06,0.0,0 STARLINK-3774,1 52680U 22053AA  23025.56531590 -.00000411  00000-0 -77561-5 0  9998,2 52680  53.2180 217.8399 0001527  88.5425 271.5742 15.08836485 39185,6917.891,95.438,540.812,538.7,0.0
52680.0,STARLINK-3774,PAYLOAD,2023-01-25 19:55:36,15.08838418,0.0001501999999999,53.2189,216.6506,89.7544,270.362,5.4412e-05,5.78e-06,0.0,0 STARLINK-3774,1 52680U 22053AA  23025.83027795  .00000578  00000-0  54412-4 0  9996,2 52680  53.2189 216.6506 0001502  89.7544 270.3620 15.08838418 39224,6917.885,95.438,540.789,538.711,0.0
